{"type": "FeatureCollection", "features": [ {"type": "Feature", "properties": {"norad_id": 30435, "name": "FENGYUN 1C DEB", "group": "fengyun-1c-debris", "lat": 19.692148098359933, "lon": -16.143696411281972, "alt_km": 868.9007741680189, "timestamp": "2025-12-27T12:55:14.781888+00:00", "meta": {"OBJECT_NAME": "FENGYUN 1C DEB", "OBJECT_ID": "1999-025AEW", "EPOCH": "2025-12-27T05:55:12.435744", "MEAN_MOTION": 13.79674019, "ECCENTRICITY": 0.02090775, "INCLINATION": 99.0182, "RA_OF_ASC_NODE": 346.8365, "ARG_OF_PERICENTER": 73.0183, "MEAN_ANOMALY": 300.8969, "EPHEMERIS_TYPE": 0, "CLASSIFICATION_TYPE": "U", "NORAD_CAT_ID": 30435, "ELEMENT_SET_NO": 999, "REV_AT_EPOCH": 94360, "BSTAR": 0.0017518743, "MEAN_MOTION_DOT": 2.092e-05, "MEAN_MOTION_DDOT": 0}, "tle": {"line1": "1 30435U 99025AEW 25361.24667171  .00002092  00000+0  17519-2 0  9998", "line2": "2 30435  99.0182 346.8365 0209077  73.0183 300.8969 13.79674019943602"}}, "geometry": {"type": "Point", "coordinates": [-16.143696411281972, 19.692148098359933]}}, {"type": "Feature", "properties": {"norad_id": 30436, "name": "FENGYUN 1C DEB", "group": "fengyun-1c-debris", "lat": -4.9408174637487114, "lon": 74.15853583100052, "alt_km": 825.6734283803507, "timestamp": "2025-12-27T12:55:14.781898+00:00", "meta": {"OBJECT_NAME": "FENGYUN 1C DEB", "OBJECT_ID": "1999-025AEX", "EPOCH": "2025-12-27T05:52:26.071680", "MEAN_MOTION": 14.22419013, "ECCENTRICITY": 0.00985147, "INCLINATION": 98.4264, "RA_OF_ASC_NODE": 254.612, "ARG_OF_PERICENTER": 91.1648, "MEAN_ANOMALY": 29.9014, "EPHEMERIS_TYPE": 0, "CLASSIFICATION_TYPE": "U", "NORAD_CAT_ID": 30436, "ELEMENT_SET_NO": 999, "REV_AT_EPOCH": 96643, "BSTAR": 0.0022735169, "MEAN_MOTION_DOT": 5.284e-05, "MEAN_MOTION_DDOT": 0}, "tle": {"line1": "1 30436U 99025AEX 25361.24474620  .00005284  00000+0  22735-2 0  9996", "line2": "2 30436  98.4264 254.6120 0098514  91.1648  29.9014 14.22419013966437"}}, "geometry": {"type": "Point", "coordinates": [74.15853583100052, -4.9408174637487114]}}, {"type": "Feature", "properties": {"norad_id": 30437, "name": "FENGYUN 1C DEB", "group": "fengyun-1c-debris", "lat": -0.33408145027581776, "lon": -156.9073565312819, "alt_km": 618.9403135846596, "timestamp": "2025-12-27T12:55:14.781909+00:00", "meta": {"OBJECT_NAME": "FENGYUN 1C DEB", "OBJECT_ID": "1999-025AEY", "EPOCH": "2025-12-26T14:05:37.752000", "MEAN_MOTION": 14.8860203, "ECCENTRICITY": 0.0035173, "INCLINATION": 98.9215, "RA_OF_ASC_NODE": 22.0751, "ARG_OF_PERICENTER": 59.1165, "MEAN_ANOMALY": 66.6992, "EPHEMERIS_TYPE": 0, "CLASSIFICATION_TYPE": "U", "NORAD_CAT_ID": 30437, "ELEMENT_SET_NO": 999, "REV_AT_EPOCH": 99393, "BSTAR": 0.0022578, "MEAN_MOTION_DOT": 0.00021263, "MEAN_MOTION_DDOT": 0}, "tle": {"line1": "1 30437U 99025AEY 25360.58724250  .00021263  00000+0  22578-2 0  9990", "line2": "2 30437  98.9215  22.0751 0035173  59.1165  66.6992 14.88602030993939"}}, "geometry": {"type": "Point", "coordinates": [-156.9073565312819, -0.33408145027581776]}}, {"type": "Feature", "properties": {"norad_id": 30438, "name": "FENGYUN 1C DEB", "group": "fengyun-1c-debris", "lat": -80.3847407050257, "lon": 83.12094364277583, "alt_km": 987.8489625003212, "timestamp": "2025-12-27T12:55:14.781919+00:00", "meta": {"OBJECT_NAME": "FENGYUN 1C DEB", "OBJECT_ID": "1999-025AEZ", "EPOCH": "2025-12-25T00:58:15.685248", "MEAN_MOTION": 13.92140653, "ECCENTRICITY": 0.01348772, "INCLINATION": 98.7499, "RA_OF_ASC_NODE": 15.3837, "ARG_OF_PERICENTER": 153.1315, "MEAN_ANOMALY": 207.6915, "EPHEMERIS_TYPE": 0, "CLASSIFICATION_TYPE": "U", "NORAD_CAT_ID": 30438, "ELEMENT_SET_NO": 999, "REV_AT_EPOCH": 95477, "BSTAR": 0.001231799, "MEAN_MOTION_DOT": 1.658e-05, "MEAN_MOTION_DDOT": 0}, "tle": {"line1": "1 30438U 99025AEZ 25359.04045932  .00001658  00000+0  12318-2 0  9990", "line2": "2 30438  98.7499  15.3837 0134877 153.1315 207.6915 13.92140653954778"}}, "geometry": {"type": "Point", "coordinates": [83.12094364277583, -80.3847407050257]}}, {"type": "Feature", "properties": {"norad_id": 30439, "name": "FENGYUN 1C DEB", "group": "fengyun-1c-debris", "lat": 11.17459502070895, "lon": 11.075316763879684, "alt_km": 858.3007941546994, "timestamp": "2025-12-27T12:55:14.781929+00:00", "meta": {"OBJECT_NAME": "FENGYUN 1C DEB", "OBJECT_ID": "1999-025AFA", "EPOCH": "2025-12-26T12:02:03.253056", "MEAN_MOTION": 14.08863263, "ECCENTRICITY": 0.0038262, "INCLINATION": 98.7499, "RA_OF_ASC_NODE": 11.8123, "ARG_OF_PERICENTER": 297.2555, "MEAN_ANOMALY": 217.4046, "EPHEMERIS_TYPE": 0, "CLASSIFICATION_TYPE": "U", "NORAD_CAT_ID": 30439, "ELEMENT_SET_NO": 999, "REV_AT_EPOCH": 96985, "BSTAR": 0.00053477, "MEAN_MOTION_DOT": 8.87e-06, "MEAN_MOTION_DDOT": 0}, "tle": {"line1": "1 30439U 99025AFA 25360.50142654  .00000887  00000+0  53477-3 0  9998", "line2": "2 30439  98.7499  11.8123 0038262 297.2555 217.4046 14.08863263969851"}}, "geometry": {"type": "Point", "coordinates": [11.075316763879684, 11.17459502070895]}}, {"type": "Feature", "properties": {"norad_id": 30441, "name": "FENGYUN 1C DEB", "group": "fengyun-1c-debris", "lat": 19.374893074231448, "lon": -86.41147677650434, "alt_km": 898.7526446082884, "timestamp": "2025-12-27T12:55:14.781940+00:00", "meta": {"OBJECT_NAME": "FENGYUN 1C DEB", "OBJECT_ID": "1999-025AFC", "EPOCH": "2025-12-27T05:09:30.156768", "MEAN_MOTION": 13.77698048, "ECCENTRICITY": 0.01844874, "INCLINATION": 99.1337, "RA_OF_ASC_NODE": 90.0342, "ARG_OF_PERICENTER": 219.2757, "MEAN_ANOMALY": 139.4891, "EPHEMERIS_TYPE": 0, "CLASSIFICATION_TYPE": "U", "NORAD_CAT_ID": 30441, "ELEMENT_SET_NO": 999, "REV_AT_EPOCH": 95069, "BSTAR": 0.00065614115, "MEAN_MOTION_DOT": 7e-06, "MEAN_MOTION_DDOT": 0}, "tle": {"line1": "1 30441U 99025AFC 25361.21493237  .00000700  00000+0  65614-3 0  9996", "line2": "2 30441  99.1337  90.0342 0184487 219.2757 139.4891 13.77698048950696"}}, "geometry": {"type": "Point", "coordinates": [-86.41147677650434, 19.374893074231448]}}, {"type": "Feature", "properties": {"norad_id": 30442, "name": "FENGYUN 1C DEB", "group": "fengyun-1c-debris", "lat": 43.28259053921749, "lon": 86.92197720886057, "alt_km": 829.8071078084295, "timestamp": "2025-12-27T12:55:14.781950+00:00", "meta": {"OBJECT_NAME": "FENGYUN 1C DEB", "OBJECT_ID": "1999-025AFD", "EPOCH": "2025-12-27T05:59:28.476096", "MEAN_MOTION": 14.28762018, "ECCENTRICITY": 0.00558919, "INCLINATION": 98.8667, "RA_OF_ASC_NODE": 95.0824, "ARG_OF_PERICENTER": 245.1158, "MEAN_ANOMALY": 114.4206, "EPHEMERIS_TYPE": 0, "CLASSIFICATION_TYPE": "U", "NORAD_CAT_ID": 30442, "ELEMENT_SET_NO": 999, "REV_AT_EPOCH": 97369, "BSTAR": 0.0024865839, "MEAN_MOTION_DOT": 6.326e-05, "MEAN_MOTION_DDOT": 0}, "tle": {"line1": "1 30442U 99025AFD 25361.24963514  .00006326  00000+0  24866-2 0  9993", "line2": "2 30442  98.8667  95.0824 0055891 245.1158 114.4206 14.28762018973692"}}, "geometry": {"type": "Point", "coordinates": [86.92197720886057, 43.28259053921749]}}, {"type": "Feature", "properties": {"norad_id": 30443, "name": "FENGYUN 1C DEB", "group": "fengyun-1c-debris", "lat": -72.09620597876865, "lon": -22.10213145889514, "alt_km": 757.1628578960508, "timestamp": "2025-12-27T12:55:14.781960+00:00", "meta": {"OBJECT_NAME": "FENGYUN 1C DEB", "OBJECT_ID": "1999-025AFE", "EPOCH": "2025-12-26T20:33:13.683168", "MEAN_MOTION": 14.36983936, "ECCENTRICITY": 0.00264245, "INCLINATION": 98.8495, "RA_OF_ASC_NODE": 308.3653, "ARG_OF_PERICENTER": 298.4797, "MEAN_ANOMALY": 61.3728, "EPHEMERIS_TYPE": 0, "CLASSIFICATION_TYPE": "U", "NORAD_CAT_ID": 30443, "ELEMENT_SET_NO": 999, "REV_AT_EPOCH": 97636, "BSTAR": 0.0025216313, "MEAN_MOTION_DOT": 7.463e-05, "MEAN_MOTION_DDOT": 0}, "tle": {"line1": "1 30443U 99025AFE 25360.85640837  .00007463  00000+0  25216-2 0  9993", "line2": "2 30443  98.8495 308.3653 0026424 298.4797  61.3728 14.36983936976361"}}, "geometry": {"type": "Point", "coordinates": [-22.10213145889514, -72.09620597876865]}}, {"type": "Feature", "properties": {"norad_id": 30445, "name": "FENGYUN 1C DEB", "group": "fengyun-1c-debris", "lat": -0.15840997025497178, "lon": 133.55463792657696, "alt_km": 799.2873581455342, "timestamp": "2025-12-27T12:55:14.781970+00:00", "meta": {"OBJECT_NAME": "FENGYUN 1C DEB", "OBJECT_ID": "1999-025AFG", "EPOCH": "2025-12-26T19:30:47.194272", "MEAN_MOTION": 14.48831324, "ECCENTRICITY": 0.01049747, "INCLINATION": 98.8368, "RA_OF_ASC_NODE": 312.8203, "ARG_OF_PERICENTER": 336.1321, "MEAN_ANOMALY": 23.5022, "EPHEMERIS_TYPE": 0, "CLASSIFICATION_TYPE": "U", "NORAD_CAT_ID": 30445, "ELEMENT_SET_NO": 999, "REV_AT_EPOCH": 99388, "BSTAR": 0.00089012662, "MEAN_MOTION_DOT": 3.554e-05, "MEAN_MOTION_DDOT": 0}, "tle": {"line1": "1 30445U 99025AFG 25360.81304623  .00003554  00000+0  89013-3 0  9994", "line2": "2 30445  98.8368 312.8203 0104974 336.1321  23.5022 14.48831324993882"}}, "geometry": {"type": "Point", "coordinates": [133.55463792657696, -0.15840997025497178]}}, {"type": "Feature", "properties": {"norad_id": 30446, "name": "FENGYUN 1C DEB", "group": "fengyun-1c-debris", "lat": 69.9128897138022, "lon": -71.27488323912027, "alt_km": 721.4496749477848, "timestamp": "2025-12-27T12:55:14.781981+00:00", "meta": {"OBJECT_NAME": "FENGYUN 1C DEB", "OBJECT_ID": "1999-025AFH", "EPOCH": "2025-12-26T04:50:48.679584", "MEAN_MOTION": 14.44871187, "ECCENTRICITY": 0.0033877, "INCLINATION": 98.6125, "RA_OF_ASC_NODE": 82.8868, "ARG_OF_PERICENTER": 57.9586, "MEAN_ANOMALY": 302.4887, "EPHEMERIS_TYPE": 0, "CLASSIFICATION_TYPE": "U", "NORAD_CAT_ID": 30446, "ELEMENT_SET_NO": 999, "REV_AT_EPOCH": 98371, "BSTAR": 0.0016292, "MEAN_MOTION_DOT": 5.667e-05, "MEAN_MOTION_DDOT": 0}, "tle": {"line1": "1 30446U 99025AFH 25360.20195231  .00005667  00000+0  16292-2 0  9996", "line2": "2 30446  98.6125  82.8868 0033877  57.9586 302.4887 14.44871187983713"}}, "geometry": {"type": "Point", "coordinates": [-71.27488323912027, 69.9128897138022]}}]}